TISAT 1                 
1 36799U 10035E   26068.75703562  .00024554  00000+0  91005-3 0  9997
2 36799  98.0645   6.8512 0001343 159.3030 200.8262 15.27628633852505
STARLINK-32544          
1 61917U 24207F   26068.95142514  .00041280  00000+0  15001-2 0  9995
2 61917  43.0027 280.1290 0001227 305.5012  54.5725 15.27604471 74761
